[{"OBJECT_NAME":"KORSAT-1","OBJECT_ID":"2024-066L","EPOCH":"2026-03-09T23:36:29.126880","MEAN_MOTION":14.99775855,"ECCENTRICITY":0.00103896,"INCLINATION":45.4118,"RA_OF_ASC_NODE":38.4763,"ARG_OF_PERICENTER":214.4294,"MEAN_ANOMALY":145.5913,"EPHEMERIS_TYPE":0,"CLASSIFICATION_TYPE":"U","NORAD_CAT_ID":59452,"ELEMENT_SET_NO":999,"REV_AT_EPOCH":10517,"BSTAR":0.00047970888,"MEAN_MOTION_DOT":5.797e-5,"MEAN_MOTION_DDOT":0},{"OBJECT_NAME":"STARLINK-34497","OBJECT_ID":"2025-142A","EPOCH":"2026-03-09T23:15:11.045376","MEAN_MOTION":14.98336499,"ECCENTRICITY":0.00025502,"INCLINATION":70.0014,"RA_OF_ASC_NODE":313.7157,"ARG_OF_PERICENTER":269.4285,"MEAN_ANOMALY":90.6582,"EPHEMERIS_TYPE":0,"CLASSIFICATION_TYPE":"U","NORAD_CAT_ID":64696,"ELEMENT_SET_NO":999,"REV_AT_EPOCH":3968,"BSTAR":0.0007243704,"MEAN_MOTION_DOT":8.562e-5,"MEAN_MOTION_DDOT":0}]
